[{"OBJECT_NAME":"STARLINK-2753","OBJECT_ID":"2021-044BL","EPOCH":"2026-03-09T12:35:28.424256","MEAN_MOTION":15.29842639,"ECCENTRICITY":0.00013911,"INCLINATION":53.1589,"RA_OF_ASC_NODE":89.2579,"ARG_OF_PERICENTER":119.4639,"MEAN_ANOMALY":240.65,"EPHEMERIS_TYPE":0,"CLASSIFICATION_TYPE":"U","NORAD_CAT_ID":48696,"ELEMENT_SET_NO":999,"REV_AT_EPOCH":26415,"BSTAR":0.0020258361,"MEAN_MOTION_DOT":0.00059459,"MEAN_MOTION_DDOT":0},{"OBJECT_NAME":"TEVEL2-3","OBJECT_ID":"2025-052J","EPOCH":"2026-03-09T15:29:22.754400","MEAN_MOTION":15.30377031,"ECCENTRICITY":0.0004761,"INCLINATION":97.3994,"RA_OF_ASC_NODE":324.7775,"ARG_OF_PERICENTER":105.7353,"MEAN_ANOMALY":254.4413,"EPHEMERIS_TYPE":0,"CLASSIFICATION_TYPE":"U","NORAD_CAT_ID":63218,"ELEMENT_SET_NO":999,"REV_AT_EPOCH":5485,"BSTAR":0.00069446,"MEAN_MOTION_DOT":0.00020365,"MEAN_MOTION_DDOT":0}]
